{
  "links" : {
    "next" : "https://api.nasa.gov/neo/rest/v1/neo/browse?page=30&size=20&api_key=jqAGvNAwUIBu4fl9FSOjdm3V4F7hIglRzI6pdX9d",
    "prev" : "https://api.nasa.gov/neo/rest/v1/neo/browse?page=28&size=20&api_key=jqAGvNAwUIBu4fl9FSOjdm3V4F7hIglRzI6pdX9d",
    "self" : "https://api.nasa.gov/neo/rest/v1/neo/browse?page=29&size=20&api_key=jqAGvNAwUIBu4fl9FSOjdm3V4F7hIglRzI6pdX9d"
  },
  "page" : {
    "size" : 20,
    "total_elements" : 20750,
    "total_pages" : 1038,
    "number" : 29
  },
  "near_earth_objects" : [ {
    "links" : {
      "self" : "https://api.nasa.gov/neo/rest/v1/neo/3361550?api_key=jqAGvNAwUIBu4fl9FSOjdm3V4F7hIglRzI6pdX9d"
    },
    "neo_reference_id" : "3361550",
    "name" : "(2006 WQ127)",
    "designation" : "2006 WQ127",
    "nasa_jpl_url" : "http://ssd.jpl.nasa.gov/sbdb.cgi?sstr=3361550",
    "absolute_magnitude_h" : 23.3,
    "estimated_diameter" : {
      "kilometers" : {
        "estimated_diameter_min" : 0.058150704,
        "estimated_diameter_max" : 0.130028927
      },
      "meters" : {
        "estimated_diameter_min" : 58.1507039646,
        "estimated_diameter_max" : 130.0289270043
      },
      "miles" : {
        "estimated_diameter_min" : 0.0361331611,
        "estimated_diameter_max" : 0.0807962044
      },
      "feet" : {
        "estimated_diameter_min" : 190.7831555951,
        "estimated_diameter_max" : 426.6041048727
      }
    },
    "is_potentially_hazardous_asteroid" : false,
    "close_approach_data" : [ {
      "close_approach_date" : "2006-12-02",
      "epoch_date_close_approach" : 1165046400000,
      "relative_velocity" : {
        "kilometers_per_second" : "17.9606563457",
        "kilometers_per_hour" : "64658.3628443594",
        "miles_per_hour" : "40176.1921795966"
      },
      "miss_distance" : {
        "astronomical" : "0.0201310408",
        "lunar" : "7.8309745789",
        "kilometers" : "3011560.75",
        "miles" : "1871297.125"
      },
      "orbiting_body" : "Earth"
    }, {
      "close_approach_date" : "2008-06-26",
      "epoch_date_close_approach" : 1214463600000,
      "relative_velocity" : {
        "kilometers_per_second" : "12.98270418",
        "kilometers_per_hour" : "46737.7350480623",
        "miles_per_hour" : "29041.0109802807"
      },
      "miss_distance" : {
        "astronomical" : "0.1248386686",
        "lunar" : "48.5622406006",
        "kilometers" : "18675598",
        "miles" : "11604479"
      },
      "orbiting_body" : "Venus"
    } ],
    "orbital_data" : {
      "orbit_id" : "6",
      "orbit_determination_date" : "2017-04-06 09:07:29",
      "first_observation_date" : "2006-11-25",
      "last_observation_date" : "2006-11-27",
      "data_arc_in_days" : 2,
      "observations_used" : 28,
      "orbit_uncertainty" : "8",
      "minimum_orbit_intersection" : ".011331",
      "jupiter_tisserand_invariant" : "4.792",
      "epoch_osculation" : "2454065.5",
      "eccentricity" : ".5090271743644812",
      "semi_major_axis" : "1.310225246431332",
      "inclination" : "18.09562476659289",
      "ascending_node_longitude" : "73.57637910460136",
      "orbital_period" : "547.7941274080454",
      "perihelion_distance" : ".643284991459385",
      "perihelion_argument" : "87.40815185261823",
      "aphelion_distance" : "1.977165501403279",
      "perihelion_time" : "2454124.971791070932",
      "mean_anomaly" : "320.9162571953102",
      "mean_motion" : ".6571811963435678",
      "equinox" : "J2000",
      "orbit_class" : {
        "orbit_class_type" : "APO",
        "orbit_class_range" : "a (semi-major axis) > 1.0 AU; q (perihelion) < 1.017 AU",
        "orbit_class_description" : "Near-Earth asteroid orbits which cross the Earth’s orbit similar to that of 1862 Apollo"
      }
    },
    "is_sentry_object" : false
  }, {
    "links" : {
      "self" : "https://api.nasa.gov/neo/rest/v1/neo/3361623?api_key=jqAGvNAwUIBu4fl9FSOjdm3V4F7hIglRzI6pdX9d"
    },
    "neo_reference_id" : "3361623",
    "name" : "(2006 WD129)",
    "designation" : "2006 WD129",
    "nasa_jpl_url" : "http://ssd.jpl.nasa.gov/sbdb.cgi?sstr=3361623",
    "absolute_magnitude_h" : 26.3,
    "estimated_diameter" : {
      "kilometers" : {
        "estimated_diameter_min" : 0.0146067964,
        "estimated_diameter_max" : 0.0326617897
      },
      "meters" : {
        "estimated_diameter_min" : 14.6067964271,
        "estimated_diameter_max" : 32.6617897446
      },
      "miles" : {
        "estimated_diameter_min" : 0.0090762397,
        "estimated_diameter_max" : 0.020295089
      },
      "feet" : {
        "estimated_diameter_min" : 47.92256199,
        "estimated_diameter_max" : 107.1581062656
      }
    },
    "is_potentially_hazardous_asteroid" : false,
    "close_approach_data" : [ {
      "close_approach_date" : "2006-11-17",
      "epoch_date_close_approach" : 1163750400000,
      "relative_velocity" : {
        "kilometers_per_second" : "10.8171479009",
        "kilometers_per_hour" : "38941.7324433808",
        "miles_per_hour" : "24196.8781396107"
      },
      "miss_distance" : {
        "astronomical" : "0.0383503288",
        "lunar" : "14.9182777405",
        "kilometers" : "5737127.5",
        "miles" : "3564885.75"
      },
      "orbiting_body" : "Earth"
    } ],
    "orbital_data" : {
      "orbit_id" : "6",
      "orbit_determination_date" : "2017-04-06 09:07:29",
      "first_observation_date" : "2006-11-25",
      "last_observation_date" : "2006-11-27",
      "data_arc_in_days" : 2,
      "observations_used" : 17,
      "orbit_uncertainty" : "9",
      "minimum_orbit_intersection" : ".0134915",
      "jupiter_tisserand_invariant" : "3.796",
      "epoch_osculation" : "2454065.5",
      "eccentricity" : ".5018180496338565",
      "semi_major_axis" : "1.885253615805203",
      "inclination" : "6.035493834191003",
      "ascending_node_longitude" : "56.81160482879768",
      "orbital_period" : "945.4816414116376",
      "perihelion_distance" : ".9391993232566601",
      "perihelion_argument" : "319.4320365384805",
      "aphelion_distance" : "2.831307908353745",
      "perihelion_time" : "2454028.027614065786",
      "mean_anomaly" : "14.26792266021782",
      "mean_motion" : ".3807583185459923",
      "equinox" : "J2000",
      "orbit_class" : {
        "orbit_class_type" : "APO",
        "orbit_class_range" : "a (semi-major axis) > 1.0 AU; q (perihelion) < 1.017 AU",
        "orbit_class_description" : "Near-Earth asteroid orbits which cross the Earth’s orbit similar to that of 1862 Apollo"
      }
    },
    "is_sentry_object" : false
  }, {
    "links" : {
      "self" : "https://api.nasa.gov/neo/rest/v1/neo/3362878?api_key=jqAGvNAwUIBu4fl9FSOjdm3V4F7hIglRzI6pdX9d"
    },
    "neo_reference_id" : "3362878",
    "name" : "(2006 WK130)",
    "designation" : "2006 WK130",
    "nasa_jpl_url" : "http://ssd.jpl.nasa.gov/sbdb.cgi?sstr=3362878",
    "absolute_magnitude_h" : 22.3,
    "estimated_diameter" : {
      "kilometers" : {
        "estimated_diameter_min" : 0.0921626549,
        "estimated_diameter_max" : 0.2060819612
      },
      "meters" : {
        "estimated_diameter_min" : 92.1626548503,
        "estimated_diameter_max" : 206.0819612321
      },
      "miles" : {
        "estimated_diameter_min" : 0.057267201,
        "estimated_diameter_max" : 0.1280533543
      },
      "feet" : {
        "estimated_diameter_min" : 302.370924539,
        "estimated_diameter_max" : 676.1219416887
      }
    },
    "is_potentially_hazardous_asteroid" : false,
    "close_approach_data" : [ {
      "close_approach_date" : "2006-11-23",
      "epoch_date_close_approach" : 1164268800000,
      "relative_velocity" : {
        "kilometers_per_second" : "17.7793499002",
        "kilometers_per_hour" : "64005.6596406894",
        "miles_per_hour" : "39770.6277917384"
      },
      "miss_distance" : {
        "astronomical" : "0.100682716",
        "lunar" : "39.1655769348",
        "kilometers" : "15061920",
        "miles" : "9359043"
      },
      "orbiting_body" : "Earth"
    }, {
      "close_approach_date" : "2009-12-14",
      "epoch_date_close_approach" : 1260777600000,
      "relative_velocity" : {
        "kilometers_per_second" : "28.7726298943",
        "kilometers_per_hour" : "103581.4676194951",
        "miles_per_hour" : "64361.4958105691"
      },
      "miss_distance" : {
        "astronomical" : "0.2860108562",
        "lunar" : "111.2582244873",
        "kilometers" : "42786616",
        "miles" : "26586370"
      },
      "orbiting_body" : "Earth"
    } ],
    "orbital_data" : {
      "orbit_id" : "13",
      "orbit_determination_date" : "2017-04-06 09:07:27",
      "first_observation_date" : "2006-11-28",
      "last_observation_date" : "2006-12-20",
      "data_arc_in_days" : 22,
      "observations_used" : 32,
      "orbit_uncertainty" : "8",
      "minimum_orbit_intersection" : ".0199067",
      "jupiter_tisserand_invariant" : "3.371",
      "epoch_osculation" : "2454073.5",
      "eccentricity" : ".68235064731539",
      "semi_major_axis" : "2.108691134626993",
      "inclination" : "13.80358778470488",
      "ascending_node_longitude" : "72.25000145538446",
      "orbital_period" : "1118.453376987865",
      "perihelion_distance" : ".6698243739260403",
      "perihelion_argument" : "276.8443248131427",
      "aphelion_distance" : "3.547557895327947",
      "perihelion_time" : "2454019.166209659571",
      "mean_anomaly" : "17.48858282786218",
      "mean_motion" : ".3218730502379322",
      "equinox" : "J2000",
      "orbit_class" : {
        "orbit_class_type" : "APO",
        "orbit_class_range" : "a (semi-major axis) > 1.0 AU; q (perihelion) < 1.017 AU",
        "orbit_class_description" : "Near-Earth asteroid orbits which cross the Earth’s orbit similar to that of 1862 Apollo"
      }
    },
    "is_sentry_object" : true,
    "sentry_data" : "https://api.nasa.gov/neo/rest/v1/neo/sentry/3362878?api_key=jqAGvNAwUIBu4fl9FSOjdm3V4F7hIglRzI6pdX9d"
  } ]
}